<?xml version="1.0" encoding="UTF-8"?>
<kml xmlns="http://www.opengis.net/kml/2.2">
  <Document>
    <Style id="Target">
      <IconStyle>
        <Icon>
          <href>http://maps.google.com/mapfiles/ms/icons/red-dot.png</href>
        </Icon>
      </IconStyle>
    </Style>
<Placemark><n>Valley View Elementary</n><styleUrl>#Closing</styleUrl><description><![CDATA[<b><u>District:</u></b> Eanes ISD<br/><b><u>Address:</u></b> 1201 S Capital of Texas Hwy, Austin, TX 78746<br/><b><u>First Year Closed:</b></u> 2025-26]]></description><Point><coordinates>-97.747732, 30.145684</coordinates></Point></Placemark>
<Placemark><n>Dobie Middle School</n><styleUrl>#Under Review</styleUrl><description><![CDATA[<b><u>District:</u></b> Austin ISD<br/><b><u>Address:</u></b> 1200 E Rundberg Ln, Austin, TX 78753<br/><b><u>First Year Closed:</b></u> 2025-26]]></description><Point><coordinates>-97.680388, 30.354108</coordinates></Point></Placemark>
<Placemark><n>Pinkerton Elementary School</n><styleUrl>#Closing</styleUrl><description><![CDATA[<b><u>District:</u></b> Coppell ISD<br/><b><u>Address:</u></b> 260 Southwestern Blvd, Coppell, TX 75019<br/><b><u>First Year Closed:</b></u> 2025-26]]></description><Point><coordinates>-96.997799, 32.948736</coordinates></Point></Placemark>
<Placemark><n>B.B. Owen Elementary</n><styleUrl>#Closing</styleUrl><description><![CDATA[<b><u>District:</u></b> Lewisville ISD<br/><b><u>Address:</u></b> 5640 Squires Dr, The Colony, TX 75056<br/><b><u>First Year Closed:</b></u> 2025-26]]></description><Point><coordinates>-96.867084, 33.106538</coordinates></Point></Placemark>
<Placemark><n>Creekside Elementary</n><styleUrl>#Closing</styleUrl><description><![CDATA[<b><u>District:</u></b> Lewisville ISD<br/><b><u>Address:</u></b> 901 Valley View Dr, Lewisville, TX 75067<br/><b><u>First Year Closed:</b></u> 2025-26]]></description><Point><coordinates>-97.006855, 33.013912</coordinates></Point></Placemark>
<Placemark><n>Garden Ridge Elementary</n><styleUrl>#Closing</styleUrl><description><![CDATA[<b><u>District:</u></b> Lewisville ISD<br/><b><u>Address:</u></b> 2220 S Garden Ridge Blvd, Flower Mound, TX 75028<br/><b><u>First Year Closed:</b></u> 2025-26]]></description><Point><coordinates>-97.03512, 33.016329</coordinates></Point></Placemark>
<Placemark><n>Highland Village Elementary</n><styleUrl>#Closing</styleUrl><description><![CDATA[<b><u>District:</u></b> Lewisville ISD<br/><b><u>Address:</u></b> 301 Brazos Blvd, Highland Village, TX 75077<br/><b><u>First Year Closed:</b></u> 2025-26]]></description><Point><coordinates>-97.044338, 33.082355</coordinates></Point></Placemark>
<Placemark><n>Polser Elementary STEM Academy</n><styleUrl>#Closing</styleUrl><description><![CDATA[<b><u>District:</u></b> Lewisville ISD<br/><b><u>Address:</u></b> 1520 Polser Rd, Carrollton, TX 75010<br/><b><u>First Year Closed:</b></u> 2025-26]]></description><Point><coordinates>-96.900696, 33.026166</coordinates></Point></Placemark>
<Placemark><n>Armstrong Middle School</n><styleUrl>#Closing</styleUrl><description><![CDATA[<b><u>District:</u></b> Plano ISD<br/><b><u>Address:</u></b> 3805 Timberline Dr, Plano, TX 75074<br/><b><u>First Year Closed:</b></u> 2025-26]]></description><Point><coordinates>-96.659294, 33.021428</coordinates></Point></Placemark>
<Placemark><n>Carpenter Middle School</n><styleUrl>#Closing</styleUrl><description><![CDATA[<b><u>District:</u></b> Plano ISD<br/><b><u>Address:</u></b> 3905 Rainier Rd, Plano, TX 75023<br/><b><u>First Year Closed:</b></u> 2025-26]]></description><Point><coordinates>-96.72231, 33.050223</coordinates></Point></Placemark>
<Placemark><n>Davis Elementary School</n><styleUrl>#Closing</styleUrl><description><![CDATA[<b><u>District:</u></b> Plano ISD<br/><b><u>Address:</u></b> 2701 Parkhaven Dr, Plano, TX 75075<br/><b><u>First Year Closed:</b></u> 2025-26]]></description><Point><coordinates>-96.745914, 33.034473</coordinates></Point></Placemark>
<Placemark><n>Forman Elementary School</n><styleUrl>#Closing</styleUrl><description><![CDATA[<b><u>District:</u></b> Plano ISD<br/><b><u>Address:</u></b> 3600 Timberline Dr, Plano, TX 75074<br/><b><u>First Year Closed:</b></u> 2025-26]]></description><Point><coordinates>-96.662943, 33.020988</coordinates></Point></Placemark>
<Placemark><n>Greenwood Hills Elementary</n><styleUrl>#Closed</styleUrl><description><![CDATA[<b><u>District:</u></b> Richardson ISD<br/><b><u>Address:</u></b> 1313 West Shore Dr, Richardson, TX 75080<br/><b><u>First Year Closed:</b></u> 2024-25]]></description><Point><coordinates>-96.749193, 32.968331</coordinates></Point></Placemark>
<Placemark><n>Springridge Elementary</n><styleUrl>#Closed</styleUrl><description><![CDATA[<b><u>District:</u></b> Richardson ISD<br/><b><u>Address:</u></b> 1801 E Spring Valley Rd, Richardson, TX 75081<br/><b><u>First Year Closed:</b></u> 2024-25]]></description><Point><coordinates>-96.690294, 32.939097</coordinates></Point></Placemark>
<Placemark><n>Spring Valley Elementary</n><styleUrl>#Closed</styleUrl><description><![CDATA[<b><u>District:</u></b> Richardson ISD<br/><b><u>Address:</u></b> 13535 Spring Grove Ave, Dallas, TX 75240<br/><b><u>First Year Closed:</b></u> 2024-25]]></description><Point><coordinates>-96.775785, 32.933509</coordinates></Point></Placemark>
<Placemark><n>Thurgood Marshall Elementary</n><styleUrl>#Closed</styleUrl><description><![CDATA[<b><u>District:</u></b> Richardson ISD<br/><b><u>Address:</u></b> 9666 Ferris Branch Blvd, Dallas, TX 75243<br/><b><u>First Year Closed:</b></u> 2024-25]]></description><Point><coordinates>-96.724616, 32.902396</coordinates></Point></Placemark>
<Placemark><n>Dobie Pre-Kindergarten School</n><styleUrl>#Closing</styleUrl><description><![CDATA[<b><u>District:</u></b> Richardson ISD<br/><b><u>Address:</u></b> 14040 Rolling Hills Ln, Dallas, TX 75240<br/><b><u>First Year Closed:</b></u> 2025-26]]></description><Point><coordinates>-96.763798, 32.934693</coordinates></Point></Placemark>
<Placemark><n>Furneaux Elementary</n><styleUrl>#Closing</styleUrl><description><![CDATA[<b><u>District:</u></b> Carrollton-Farmers Branch ISD<br/><b><u>Address:</u></b> 3210 Furneaux Ln, Carrollton, TX 75007<br/><b><u>First Year Closed:</b></u> 2025-26]]></description><Point><coordinates>-96.873547, 33.005828</coordinates></Point></Placemark>
<Placemark><n>Central Elementary</n><styleUrl>#Closing</styleUrl><description><![CDATA[<b><u>District:</u></b> Carrollton-Farmers Branch ISD<br/><b><u>Address:</u></b> 1600 S Perry Rd, Carrollton, TX 75006<br/><b><u>First Year Closed:</b></u> 2025-26]]></description><Point><coordinates>-96.894097, 32.945169</coordinates></Point></Placemark>
<Placemark><n>McCoy Elementary</n><styleUrl>#Closing</styleUrl><description><![CDATA[<b><u>District:</u></b> Carrollton-Farmers Branch ISD<br/><b><u>Address:</u></b> 2425 McCoy Rd, Carrollton, TX 75006<br/><b><u>First Year Closed:</b></u> 2025-26]]></description><Point><coordinates>-96.898114, 32.98152</coordinates></Point></Placemark>
<Placemark><n>Long Middle School</n><styleUrl>#Closing</styleUrl><description><![CDATA[<b><u>District:</u></b> Carrollton-Farmers Branch ISD<br/><b><u>Address:</u></b> 2525 Frankford Rd, Dallas, TX 75287<br/><b><u>First Year Closed:</b></u> 2025-26]]></description><Point><coordinates>-96.869779, 32.997849</coordinates></Point></Placemark>
<Placemark><n>Roundtree Elementary</n><styleUrl>#Repurposed</styleUrl><description><![CDATA[<b><u>District:</u></b> Allen ISD<br/><b><u>Address:</u></b> 800 E Main St, Allen, TX 75002<br/><b><u>First Year Closed:</b></u> 2023-24]]></description><Point><coordinates>-96.651959, 33.099388</coordinates></Point></Placemark>
<Placemark><n>Anderson Elementary</n><styleUrl>#Repurposed</styleUrl><description><![CDATA[<b><u>District:</u></b> Allen ISD<br/><b><u>Address:</u></b> 305 N Alder Dr Allen, TX 75002<br/><b><u>First Year Closed:</b></u> 2023-24]]></description><Point><coordinates>-96.636189, 33.102854</coordinates></Point></Placemark>
<Placemark><n>Ignite Middle School</n><styleUrl>#Consolidated</styleUrl><description><![CDATA[<b><u>District:</u></b> Dallas ISD<br/><b><u>Address:</u></b> 2211 Caddo St, Dallas, TX 75204<br/><b><u>First Year Closed:</b></u> 2025-26]]></description><Point><coordinates>-96.789384, 32.801614</coordinates></Point></Placemark>
<Placemark><n>Personalized learning Preparatory at Sam Houston Elementary</n><styleUrl>#Consolidated</styleUrl><description><![CDATA[<b><u>District:</u></b> Dallas ISD<br/><b><u>Address:</u></b> 2827 Throckmorton St, Dallas, TX 75219<br/><b><u>First Year Closed:</b></u> 2025-26]]></description><Point><coordinates>-96.813258, 32.810214</coordinates></Point></Placemark>
<Placemark><n>A.M. Pate Elementary</n><styleUrl>#Closing</styleUrl><description><![CDATA[<b><u>District:</u></b> Fort Worth ISD<br/><b><u>Address:</u></b> 3800 Anglin Dr, Fort Worth, TX 76119<br/><b><u>First Year Closed:</b></u> 2027-28]]></description><Point><coordinates>-97.252449, 32.707491</coordinates></Point></Placemark>
<Placemark><n>Atwood McDonald Elementary</n><styleUrl>#Closing</styleUrl><description><![CDATA[<b><u>District:</u></b> Fort Worth ISD<br/><b><u>Address:</u></b> 1850 Barron Ln, Fort Worth, TX 76112<br/><b><u>First Year Closed:</b></u> 2027-28]]></description><Point><coordinates>-97.208273, 32.751934</coordinates></Point></Placemark>
<Placemark><n>Charles Nash Elementary</n><styleUrl>#Closing</styleUrl><description><![CDATA[<b><u>District:</u></b> Fort Worth ISD<br/><b><u>Address:</u></b> 401 Samuels Ave, Fort Worth, TX 76102<br/><b><u>First Year Closed:</b></u> 2026-27]]></description><Point><coordinates>-97.32925, 32.762333</coordinates></Point></Placemark>
<Placemark><n>De Zavala Elementary</n><styleUrl>#Closing</styleUrl><description><![CDATA[<b><u>District:</u></b> Fort Worth ISD<br/><b><u>Address:</u></b> 1419 College Ave, Fort Worth, TX 76104<br/><b><u>First Year Closed:</b></u> 2027-28]]></description><Point><coordinates>-97.334589, 32.728793</coordinates></Point></Placemark>
<Placemark><n>Eastern Hills ES</n><styleUrl>#Closing</styleUrl><description><![CDATA[<b><u>District:</u></b> Fort Worth ISD<br/><b><u>Address:</u></b> 0<br/><b><u>First Year Closed:</b></u> 2025-26]]></description><Point><coordinates>-97.230999, 32.748234</coordinates></Point></Placemark>
<Placemark><n>Edward Briscoe Elementary</n><styleUrl>#Closing</styleUrl><description><![CDATA[<b><u>District:</u></b> Fort Worth ISD<br/><b><u>Address:</u></b> 2751 Yuma Ave, Fort Worth, TX 76104<br/><b><u>First Year Closed:</b></u> 2026-27]]></description><Point><coordinates>-97.307451, 32.711764</coordinates></Point></Placemark>
<Placemark><n>Harlean Beal Elementary</n><styleUrl>#Closing</styleUrl><description><![CDATA[<b><u>District:</u></b> Fort Worth ISD<br/><b><u>Address:</u></b> 5615 Forest Hill Dr, Forest Hill, TX 76119<br/><b><u>First Year Closed:</b></u> 2028-29]]></description><Point><coordinates>-97.274928, 32.676261</coordinates></Point></Placemark>
<Placemark><n>Hubbard Heights Elementary</n><styleUrl>#Closing</styleUrl><description><![CDATA[<b><u>District:</u></b> Fort Worth ISD<br/><b><u>Address:</u></b> 1333 W Spurgeon St, Fort Worth, TX 76115<br/><b><u>First Year Closed:</b></u> 2029-30]]></description><Point><coordinates>-97.338877, 32.678628</coordinates></Point></Placemark>
<Placemark><n>H.V. Helbing Elementary</n><styleUrl>#Closing</styleUrl><description><![CDATA[<b><u>District:</u></b> Fort Worth ISD<br/><b><u>Address:</u></b> 3524 N Crump St, Fort Worth, TX 76106<br/><b><u>First Year Closed:</b></u> 2028-29]]></description><Point><coordinates>-97.34226, 32.807908</coordinates></Point></Placemark>
<Placemark><n>J.T. Stevens Elementary</n><styleUrl>#Closing</styleUrl><description><![CDATA[<b><u>District:</u></b> Fort Worth ISD<br/><b><u>Address:</u></b> 6161 Wrigley Way, Fort Worth, TX 76133<br/><b><u>First Year Closed:</b></u> 2027-28]]></description><Point><coordinates>-97.392824, 32.654217</coordinates></Point></Placemark>
<Placemark><n>Kirkpatrick Middle School</n><styleUrl>#Closing</styleUrl><description><![CDATA[<b><u>District:</u></b> Fort Worth ISD<br/><b><u>Address:</u></b> 0<br/><b><u>First Year Closed:</b></u> 2029-30]]></description><Point><coordinates>-97.360153, 32.80302</coordinates></Point></Placemark>
<Placemark><n>McLean Sixth Grade</n><styleUrl>#Closing</styleUrl><description><![CDATA[<b><u>District:</u></b> Fort Worth ISD<br/><b><u>Address:</u></b> 3201 S Hills Ave, Fort Worth, TX 76109<br/><b><u>First Year Closed:</b></u> 2028-29]]></description><Point><coordinates>-97.364374, 32.695826</coordinates></Point></Placemark>
<Placemark><n>Milton Kirkpatrick Elementary</n><styleUrl>#Closing</styleUrl><description><![CDATA[<b><u>District:</u></b> Fort Worth ISD<br/><b><u>Address:</u></b> 3229 Lincoln Ave, Fort Worth, TX 76106<br/><b><u>First Year Closed:</b></u> 2026-27]]></description><Point><coordinates>-97.361338, 32.80396</coordinates></Point></Placemark>
<Placemark><n>Morningside Middle School</n><styleUrl>#Closing</styleUrl><description><![CDATA[<b><u>District:</u></b> Fort Worth ISD<br/><b><u>Address:</u></b> 2751 Mississippi Ave, Fort Worth, TX 76104<br/><b><u>First Year Closed:</b></u> 2029-30]]></description><Point><coordinates>-97.311775, 32.712147</coordinates></Point></Placemark>
<Placemark><n>Riverside Applied Learning Center</n><styleUrl>#Closing</styleUrl><description><![CDATA[<b><u>District:</u></b> Fort Worth ISD<br/><b><u>Address:</u></b> 3600 Fossil Dr, Fort Worth, TX 76111<br/><b><u>First Year Closed:</b></u> 2026-27]]></description><Point><coordinates>-97.295589, 32.803712</coordinates></Point></Placemark>
<Placemark><n>S.S. Dillow Elementary</n><styleUrl>#Closing</styleUrl><description><![CDATA[<b><u>District:</u></b> Fort Worth ISD<br/><b><u>Address:</u></b> 4000 Avenue N, Fort Worth, TX 76105<br/><b><u>First Year Closed:</b></u> 2025-26]]></description><Point><coordinates>-97.265656, 32.722721</coordinates></Point></Placemark>
<Placemark><n>Sunrise-McMillan Elementary</n><styleUrl>#Closing</styleUrl><description><![CDATA[<b><u>District:</u></b> Fort Worth ISD<br/><b><u>Address:</u></b> 3409 Stalcup Rd, Fort Worth, TX 76119<br/><b><u>First Year Closed:</b></u> 2028-29]]></description><Point><coordinates>-97.237319, 32.711776</coordinates></Point></Placemark>
<Placemark><n>West Handley Elementary</n><styleUrl>#Closing</styleUrl><description><![CDATA[<b><u>District:</u></b> Fort Worth ISD<br/><b><u>Address:</u></b> 2749 Putnam St, Fort Worth, TX 76112<br/><b><u>First Year Closed:</b></u> 2028-29]]></description><Point><coordinates>-97.227156, 32.739918</coordinates></Point></Placemark>
<Placemark><n>Effie Morris Early Learning Academy</n><styleUrl>#Closing</styleUrl><description><![CDATA[<b><u>District:</u></b> Lake Worth ISD<br/><b><u>Address:</u></b> 3801 Merrett Dr, Lake Worth, TX 76135<br/><b><u>First Year Closed:</b></u> 2025-26]]></description><Point><coordinates>-97.437999, 32.811082</coordinates></Point></Placemark>
<Placemark><n>Kirkpatrick Middle</n><styleUrl>#Under Review</styleUrl><description><![CDATA[<b><u>District:</u></b> Fort Worth ISD<br/><b><u>Address:</u></b> 3201 Refugio Ave, Fort Worth, TX 76106<br/><b><u>First Year Closed:</b></u> 2029-30]]></description><Point><coordinates>-97.360153, 32.80302</coordinates></Point></Placemark>
<Placemark><n>Kirkpatrick Elementary</n><styleUrl>#Under Review</styleUrl><description><![CDATA[<b><u>District:</u></b> Fort Worth ISD<br/><b><u>Address:</u></b> 3229 Lincoln Ave, Fort Worth, TX 76106<br/><b><u>First Year Closed:</b></u> 2026-27]]></description><Point><coordinates>-97.361338, 32.80396</coordinates></Point></Placemark>
<Placemark><n>De Santiago EC/PK/K School</n><styleUrl>#Closing</styleUrl><description><![CDATA[<b><u>District:</u></b> Aldine ISD<br/><b><u>Address:</u></b> 1420 Aldine Meadows Rd, Houston, TX 77032<br/><b><u>First Year Closed:</b></u> 2025-26]]></description><Point><coordinates>-95.364614, 29.933352</coordinates></Point></Placemark>
<Placemark><n>Stovall EC/PK/K School</n><styleUrl>#Closing</styleUrl><description><![CDATA[<b><u>District:</u></b> Aldine ISD<br/><b><u>Address:</u></b> 3025 Ellington St, Houston, TX 77088<br/><b><u>First Year Closed:</b></u> 2025-26]]></description><Point><coordinates>-95.456586, 29.880669</coordinates></Point></Placemark>
<Placemark><n>Eckert Elementary School</n><styleUrl>#Closing</styleUrl><description><![CDATA[<b><u>District:</u></b> Aldine ISD<br/><b><u>Address:</u></b> 1430 Aldine Meadows Rd, Houston, TX 77032<br/><b><u>First Year Closed:</b></u> 2025-26]]></description><Point><coordinates>-95.363177, 29.933989</coordinates></Point></Placemark>
<Placemark><n>Oleson Elementary School</n><styleUrl>#Closing</styleUrl><description><![CDATA[<b><u>District:</u></b> Aldine ISD<br/><b><u>Address:</u></b> 12345 Vickery St, Houston, TX 77039<br/><b><u>First Year Closed:</b></u> 2025-26]]></description><Point><coordinates>-95.324722, 29.904883</coordinates></Point></Placemark>
<Placemark><n>Raymond Elementary School</n><styleUrl>#Closing</styleUrl><description><![CDATA[<b><u>District:</u></b> Aldine ISD<br/><b><u>Address:</u></b> 1605 Connorvale Rd, Houston, TX 77039<br/><b><u>First Year Closed:</b></u> 2025-26]]></description><Point><coordinates>-95.360939, 29.910219</coordinates></Point></Placemark>
<Placemark><n>Smith Elementary School</n><styleUrl>#Closing</styleUrl><description><![CDATA[<b><u>District:</u></b> Aldine ISD<br/><b><u>Address:</u></b> 5815 W Little York Rd, Houston, TX 77091<br/><b><u>First Year Closed:</b></u> 2025-26]]></description><Point><coordinates>-95.475081, 29.862713</coordinates></Point></Placemark>
<Placemark><n>Wilshire Elementary</n><styleUrl>#Closing</styleUrl><description><![CDATA[<b><u>District:</u></b> North East ISD<br/><b><u>Address:</u></b> 6523 Cascade Pl, San Antonio, TX 78218<br/><b><u>First Year Closed:</b></u> 2025-26]]></description><Point><coordinates>-98.423708, 29.487769</coordinates></Point></Placemark>
<Placemark><n>Clear Spring Elementary</n><styleUrl>#Closing</styleUrl><description><![CDATA[<b><u>District:</u></b> North East ISD<br/><b><u>Address:</u></b> 4311 Clearspring Dr, San Antonio, TX 78217<br/><b><u>First Year Closed:</b></u> 2025-26]]></description><Point><coordinates>-98.407527, 29.530075</coordinates></Point></Placemark>
<Placemark><n>Driscoll Middle School</n><styleUrl>#Closing</styleUrl><description><![CDATA[<b><u>District:</u></b> North East ISD<br/><b><u>Address:</u></b> 17150 Jones Maltsberger Rd, San Antonio, TX 78247<br/><b><u>First Year Closed:</b></u> 2025-26]]></description><Point><coordinates>-98.431017, 29.595427</coordinates></Point></Placemark>
<Placemark><n>Winston Elementary</n><styleUrl>#Closed</styleUrl><description><![CDATA[<b><u>District:</u></b> Edgewood ISD<br/><b><u>Address:</u></b> 2525 S General McMullen Dr, San Antonio, TX 78226<br/><b><u>First Year Closed:</b></u> 2024-25]]></description><Point><coordinates>-98.562261, 29.390116</coordinates></Point></Placemark>
<Placemark><n>Wrenn Middle School</n><styleUrl>#Closed</styleUrl><description><![CDATA[<b><u>District:</u></b> Edgewood ISD<br/><b><u>Address:</u></b> 627 S Acme Rd, San Antonio, TX 78237<br/><b><u>First Year Closed:</b></u> 2024-25]]></description><Point><coordinates>-98.588742, 29.423295</coordinates></Point></Placemark>
<Placemark><n>Coronado Village Elementary School</n><styleUrl>#Closing</styleUrl><description><![CDATA[<b><u>District:</u></b> Judson ISD<br/><b><u>Address:</u></b> 213 Amistad Blvd, Universal City, TX 78148<br/><b><u>First Year Closed:</b></u> 2025-26]]></description><Point><coordinates>-98.318072, 29.550533</coordinates></Point></Placemark>
<Placemark><n>Baskin Elementary School</n><styleUrl>#Closing</styleUrl><description><![CDATA[<b><u>District:</u></b> San Antonio ISD<br/><b><u>Address:</u></b> 630 Crestview Dr, San Antonio, TX 78201<br/><b><u>First Year Closed:</b></u> 2026-27]]></description><Point><coordinates>-98.561341, 29.486347</coordinates></Point></Placemark>
<Placemark><n>Bowie Elementary School</n><styleUrl>#Repurposed</styleUrl><description><![CDATA[<b><u>District:</u></b> San Antonio ISD<br/><b><u>Address:</u></b> 439 Arbor Place, San Antonio, TX 78207<br/><b><u>First Year Closed:</b></u> 2023-24]]></description><Point><coordinates>-98.509163, 29.4365</coordinates></Point></Placemark>
<Placemark><n>Brewer Elementary School</n><styleUrl>#Repurposed</styleUrl><description><![CDATA[<b><u>District:</u></b> San Antonio ISD<br/><b><u>Address:</u></b> 906 Merida St, San Antonio, TX 78207<br/><b><u>First Year Closed:</b></u> 2024-25]]></description><Point><coordinates>-98.534706, 29.408404</coordinates></Point></Placemark>
<Placemark><n>Burnet Learning Center</n><styleUrl>#Repurposed</styleUrl><description><![CDATA[<b><u>District:</u></b> San Antonio ISD<br/><b><u>Address:</u></b> 406 Barrera St, San Antonio, TX 78210<br/><b><u>First Year Closed:</b></u> 2024-25]]></description><Point><coordinates>-98.48531, 29.413899</coordinates></Point></Placemark>
<Placemark><n>Caroll Early Childhood Campus</n><styleUrl>#Closing</styleUrl><description><![CDATA[<b><u>District:</u></b> San Antonio ISD<br/><b><u>Address:</u></b> 463 Holmgreen Rd, San Antonio, TX 78220<br/><b><u>First Year Closed:</b></u> 2027-28]]></description><Point><coordinates>-98.414369, 29.40747</coordinates></Point></Placemark>
<Placemark><n>Douglass</n><styleUrl>#Closed</styleUrl><description><![CDATA[<b><u>District:</u></b> San Antonio ISD<br/><b><u>Address:</u></b> 318 Martin Luther King Dr.<br/><b><u>First Year Closed:</b></u> 2024-25]]></description><Point><coordinates>-122.32174, 47.650069</coordinates></Point></Placemark>
<Placemark><n>Foster Elementary School</n><styleUrl>#Closing</styleUrl><description><![CDATA[<b><u>District:</u></b> San Antonio ISD<br/><b><u>Address:</u></b> 6718 Pecan Valley Dr, San Antonio, TX 78223<br/><b><u>First Year Closed:</b></u> 2026-27]]></description><Point><coordinates>-98.444452, 29.359971</coordinates></Point></Placemark>
<Placemark><n>Gates Elementary School</n><styleUrl>#Closing</styleUrl><description><![CDATA[<b><u>District:</u></b> San Antonio ISD<br/><b><u>Address:</u></b> 510 Morningview Dr, San Antonio, TX 78220<br/><b><u>First Year Closed:</b></u> 2027-28]]></description><Point><coordinates>-98.427911, 29.409655</coordinates></Point></Placemark>
<Placemark><n>Highland Park Elementary School</n><styleUrl>#Closed</styleUrl><description><![CDATA[<b><u>District:</u></b> San Antonio ISD<br/><b><u>Address:</u></b> 635 Rigsby Ave, San Antonio, TX 78210<br/><b><u>First Year Closed:</b></u> 2024-25]]></description><Point><coordinates>-98.462307, 29.398986</coordinates></Point></Placemark>
<Placemark><n>Huppertz Elementary School</n><styleUrl>#Closed</styleUrl><description><![CDATA[<b><u>District:</u></b> San Antonio ISD<br/><b><u>Address:</u></b> 247 Bangor Dr, San Antonio, TX 78228<br/><b><u>First Year Closed:</b></u> 2024-25]]></description><Point><coordinates>-98.57391, 29.45469</coordinates></Point></Placemark>
<Placemark><n>Kelly Elementary School</n><styleUrl>#Closing</styleUrl><description><![CDATA[<b><u>District:</u></b> San Antonio ISD<br/><b><u>Address:</u></b> 1026 Thompson Pl, San Antonio, TX 78226<br/><b><u>First Year Closed:</b></u> 2026-27]]></description><Point><coordinates>-98.541179, 29.394786</coordinates></Point></Placemark>
<Placemark><n>Knox Early Childhood Campus</n><styleUrl>#Closed</styleUrl><description><![CDATA[<b><u>District:</u></b> San Antonio ISD<br/><b><u>Address:</u></b> 302 Tipton Ave, San Antonio, TX 78204<br/><b><u>First Year Closed:</b></u> 2024-25]]></description><Point><coordinates>-98.500842, 29.393705</coordinates></Point></Placemark>
<Placemark><n>Lamar Elementary School</n><styleUrl>#Closed</styleUrl><description><![CDATA[<b><u>District:</u></b> San Antonio ISD<br/><b><u>Address:</u></b> 201 Parland Pl, San Antonio, TX 78209<br/><b><u>First Year Closed:</b></u> 2024-25]]></description><Point><coordinates>-98.465731, 29.458967</coordinates></Point></Placemark>
<Placemark><n>Nelson Early Childhood Campus</n><styleUrl>#Closed</styleUrl><description><![CDATA[<b><u>District:</u></b> San Antonio ISD<br/><b><u>Address:</u></b> 1014 Waverly Ave, San Antonio, TX 78201<br/><b><u>First Year Closed:</b></u> 2024-25]]></description><Point><coordinates>-98.527802, 29.447116</coordinates></Point></Placemark>
<Placemark><n>Pickett</n><styleUrl>#Repurposed</styleUrl><description><![CDATA[<b><u>District:</u></b> San Antonio ISD<br/><b><u>Address:</u></b> 1931 E Houston St San Antonio, TX 78202<br/><b><u>First Year Closed:</b></u> N/A]]></description><Point><coordinates>-98.466836, 29.425386</coordinates></Point></Placemark>
<Placemark><n>Steele Academy</n><styleUrl>#Closed</styleUrl><description><![CDATA[<b><u>District:</u></b> San Antonio ISD<br/><b><u>Address:</u></b> 722 Haggin St, San Antonio, TX 78210<br/><b><u>First Year Closed:</b></u> 2024-25]]></description><Point><coordinates>-98.461761, 29.387415</coordinates></Point></Placemark>
<Placemark><n>Storm Elementary School</n><styleUrl>#Closed</styleUrl><description><![CDATA[<b><u>District:</u></b> San Antonio ISD<br/><b><u>Address:</u></b> 435 Brady Blvd, San Antonio, TX 78207<br/><b><u>First Year Closed:</b></u> 2024-25]]></description><Point><coordinates>-98.528645, 29.403339</coordinates></Point></Placemark>
<Placemark><n>WW White</n><styleUrl>#Closed</styleUrl><description><![CDATA[<b><u>District:</u></b> San Antonio ISD<br/><b><u>Address:</u></b> 545 S WW White Rd, San Antonio, TX 78220<br/><b><u>First Year Closed:</b></u> 2024-25]]></description><Point><coordinates>-98.406648, 29.422422</coordinates></Point></Placemark>
<Placemark><n>Judson Middle School</n><styleUrl>#Proposed</styleUrl><description><![CDATA[<b><u>District:</u></b> Judson ISD<br/><b><u>Address:</u></b> 9695 Schaefer Rd, Converse, TX 78109<br/><b><u>First Year Closed:</b></u> 2025-26]]></description><Point><coordinates>-98.298254, 29.511661</coordinates></Point></Placemark>
<Placemark><n>Candlewood Elementary School</n><styleUrl>#Proposed</styleUrl><description><![CDATA[<b><u>District:</u></b> Judson ISD<br/><b><u>Address:</u></b> 3635 Candleglenn, San Antonio, TX 78244<br/><b><u>First Year Closed:</b></u> 2025-26]]></description><Point><coordinates>-98.368698, 29.45746</coordinates></Point></Placemark>
<Placemark><n>Franz Leadership Academy</n><styleUrl>#Proposed</styleUrl><description><![CDATA[<b><u>District:</u></b> Judson ISD<br/><b><u>Address:</u></b> 12301 Welcome Dr, Live Oak, TX 78233<br/><b><u>First Year Closed:</b></u> 2025-26]]></description><Point><coordinates>-98.335045, 29.552407</coordinates></Point></Placemark>
<Placemark><n>Park Hills Elementary</n><styleUrl>#Closing</styleUrl><description><![CDATA[<b><u>District:</u></b> Amarillo ISD<br/><b><u>Address:</u></b> 119 NE 15th Ave, Amarillo, TX 79107<br/><b><u>First Year Closed:</b></u> 2025-26]]></description><Point><coordinates>-101.833346, 35.229598</coordinates></Point></Placemark>
<Placemark><n>Pleasant Valley Elementary</n><styleUrl>#Closing</styleUrl><description><![CDATA[<b><u>District:</u></b> Amarillo ISD<br/><b><u>Address:</u></b> 4413 River Rd, Amarillo, TX 79108<br/><b><u>First Year Closed:</b></u> 2025-26]]></description><Point><coordinates>-101.831697, 35.255401</coordinates></Point></Placemark>
<Placemark><n>Sunrise Elementary</n><styleUrl>#Closing</styleUrl><description><![CDATA[<b><u>District:</u></b> Amarillo ISD<br/><b><u>Address:</u></b> 5123 SE 14th Ave, Amarillo, TX 79104<br/><b><u>First Year Closed:</b></u> 2025-26]]></description><Point><coordinates>-101.777104, 35.196829</coordinates></Point></Placemark>
<Placemark><n>Coston Elementary</n><styleUrl>#Closing</styleUrl><description><![CDATA[<b><u>District:</u></b> Lufkin ISD<br/><b><u>Address:</u></b> 707 Trenton St, Lufkin, TX 75901<br/><b><u>First Year Closed:</b></u> 2025-26]]></description><Point><coordinates>-94.712271, 31.350249</coordinates></Point></Placemark>
<Placemark><n>Kurth Primary</n><styleUrl>#Closing</styleUrl><description><![CDATA[<b><u>District:</u></b> Lufkin ISD<br/><b><u>Address:</u></b> 521 York Dr, Lufkin, TX 75901<br/><b><u>First Year Closed:</b></u> 2025-26]]></description><Point><coordinates>-94.72027, 31.321969</coordinates></Point></Placemark>
<Placemark><n>Carlos Rivera Elementary School</n><styleUrl>#Closing</styleUrl><description><![CDATA[<b><u>District:</u></b> El Paso ISD<br/><b><u>Address:</u></b> 6445 Escondido Dr, El Paso, TX 79912<br/><b><u>First Year Closed:</b></u> 2025-26]]></description><Point><coordinates>-106.534456, 31.843242</coordinates></Point></Placemark>
<Placemark><n>Lamar Elementary School</n><styleUrl>#Closing</styleUrl><description><![CDATA[<b><u>District:</u></b> El Paso ISD<br/><b><u>Address:</u></b> 1440 E Cliff Dr, El Paso, TX 79902<br/><b><u>First Year Closed:</b></u> 2025-26]]></description><Point><coordinates>-106.482975, 31.776721</coordinates></Point></Placemark>
<Placemark><n>Newman Elementary School</n><styleUrl>#Closing</styleUrl><description><![CDATA[<b><u>District:</u></b> El Paso ISD<br/><b><u>Address:</u></b> 10275 Alcan St, El Paso, TX 79924<br/><b><u>First Year Closed:</b></u> 2025-26]]></description><Point><coordinates>-106.413202, 31.910183</coordinates></Point></Placemark>
<Placemark><n>Putnam Elementary School</n><styleUrl>#Closing</styleUrl><description><![CDATA[<b><u>District:</u></b> El Paso ISD<br/><b><u>Address:</u></b> 6508 Fiesta Dr, El Paso, TX 79912<br/><b><u>First Year Closed:</b></u> 2025-26]]></description><Point><coordinates>-106.538021, 31.831657</coordinates></Point></Placemark>
<Placemark><n>Rusk Elementary School</n><styleUrl>#Closing</styleUrl><description><![CDATA[<b><u>District:</u></b> El Paso ISD<br/><b><u>Address:</u></b> 3601 N Copia St, El Paso, TX 79930<br/><b><u>First Year Closed:</b></u> 2025-26]]></description><Point><coordinates>-106.453786, 31.808848</coordinates></Point></Placemark>
<Placemark><n>Zavala Elementary School</n><styleUrl>#Closing</styleUrl><description><![CDATA[<b><u>District:</u></b> El Paso ISD<br/><b><u>Address:</u></b> 51 N Hammett St, El Paso, TX 79905<br/><b><u>First Year Closed:</b></u> 2025-26]]></description><Point><coordinates>-106.446718, 31.772095</coordinates></Point></Placemark>
<Placemark><n>Stanton Elementary School</n><styleUrl>#Closing</styleUrl><description><![CDATA[<b><u>District:</u></b> El Paso ISD<br/><b><u>Address:</u></b> 5414 Hondo Pass Dr, El Paso, TX 79924<br/><b><u>First Year Closed:</b></u> 2026-27]]></description><Point><coordinates>-106.413331, 31.869687</coordinates></Point></Placemark>
<Placemark><n>Travis Elementary School</n><styleUrl>#Closing</styleUrl><description><![CDATA[<b><u>District:</u></b> El Paso ISD<br/><b><u>Address:</u></b> 5000 N Stevens St, El Paso, TX 79930<br/><b><u>First Year Closed:</b></u> 2026-27]]></description><Point><coordinates>-106.449031, 31.820882</coordinates></Point></Placemark>

  </Document>
</kml>