{
  "type": "FeatureCollection",
  "features": [
    {
      "type": "Feature",
      "geometry": {
        "type": "Point",
        "coordinates": [
          -97.747732,
          30.145684
        ]
      },
      "properties": {
        "description": "<b><u>District:</u></b> Eanes ISD<br/><b><u>Address:</u></b> 1201 S Capital of Texas Hwy, Austin, TX 78746<br/><b><u>First Year Closed:</b></u> 2025-26",
        "styleUrl": "#Closing"
      }
    },
    {
      "type": "Feature",
      "geometry": {
        "type": "Point",
        "coordinates": [
          -97.680388,
          30.354108
        ]
      },
      "properties": {
        "description": "<b><u>District:</u></b> Austin ISD<br/><b><u>Address:</u></b> 1200 E Rundberg Ln, Austin, TX 78753<br/><b><u>First Year Closed:</b></u> 2025-26",
        "styleUrl": "#Under Review"
      }
    },
    {
      "type": "Feature",
      "geometry": {
        "type": "Point",
        "coordinates": [
          -96.997799,
          32.948736
        ]
      },
      "properties": {
        "description": "<b><u>District:</u></b> Coppell ISD<br/><b><u>Address:</u></b> 260 Southwestern Blvd, Coppell, TX 75019<br/><b><u>First Year Closed:</b></u> 2025-26",
        "styleUrl": "#Closing"
      }
    },
    {
      "type": "Feature",
      "geometry": {
        "type": "Point",
        "coordinates": [
          -96.867084,
          33.106538
        ]
      },
      "properties": {
        "description": "<b><u>District:</u></b> Lewisville ISD<br/><b><u>Address:</u></b> 5640 Squires Dr, The Colony, TX 75056<br/><b><u>First Year Closed:</b></u> 2025-26",
        "styleUrl": "#Closing"
      }
    },
    {
      "type": "Feature",
      "geometry": {
        "type": "Point",
        "coordinates": [
          -97.006855,
          33.013912
        ]
      },
      "properties": {
        "description": "<b><u>District:</u></b> Lewisville ISD<br/><b><u>Address:</u></b> 901 Valley View Dr, Lewisville, TX 75067<br/><b><u>First Year Closed:</b></u> 2025-26",
        "styleUrl": "#Closing"
      }
    },
    {
      "type": "Feature",
      "geometry": {
        "type": "Point",
        "coordinates": [
          -97.03512,
          33.016329
        ]
      },
      "properties": {
        "description": "<b><u>District:</u></b> Lewisville ISD<br/><b><u>Address:</u></b> 2220 S Garden Ridge Blvd, Flower Mound, TX 75028<br/><b><u>First Year Closed:</b></u> 2025-26",
        "styleUrl": "#Closing"
      }
    },
    {
      "type": "Feature",
      "geometry": {
        "type": "Point",
        "coordinates": [
          -97.044338,
          33.082355
        ]
      },
      "properties": {
        "description": "<b><u>District:</u></b> Lewisville ISD<br/><b><u>Address:</u></b> 301 Brazos Blvd, Highland Village, TX 75077<br/><b><u>First Year Closed:</b></u> 2025-26",
        "styleUrl": "#Closing"
      }
    },
    {
      "type": "Feature",
      "geometry": {
        "type": "Point",
        "coordinates": [
          -96.900696,
          33.026166
        ]
      },
      "properties": {
        "description": "<b><u>District:</u></b> Lewisville ISD<br/><b><u>Address:</u></b> 1520 Polser Rd, Carrollton, TX 75010<br/><b><u>First Year Closed:</b></u> 2025-26",
        "styleUrl": "#Closing"
      }
    },
    {
      "type": "Feature",
      "geometry": {
        "type": "Point",
        "coordinates": [
          -96.659294,
          33.021428
        ]
      },
      "properties": {
        "description": "<b><u>District:</u></b> Plano ISD<br/><b><u>Address:</u></b> 3805 Timberline Dr, Plano, TX 75074<br/><b><u>First Year Closed:</b></u> 2025-26",
        "styleUrl": "#Closing"
      }
    },
    {
      "type": "Feature",
      "geometry": {
        "type": "Point",
        "coordinates": [
          -96.72231,
          33.050223
        ]
      },
      "properties": {
        "description": "<b><u>District:</u></b> Plano ISD<br/><b><u>Address:</u></b> 3905 Rainier Rd, Plano, TX 75023<br/><b><u>First Year Closed:</b></u> 2025-26",
        "styleUrl": "#Closing"
      }
    },
    {
      "type": "Feature",
      "geometry": {
        "type": "Point",
        "coordinates": [
          -96.745914,
          33.034473
        ]
      },
      "properties": {
        "description": "<b><u>District:</u></b> Plano ISD<br/><b><u>Address:</u></b> 2701 Parkhaven Dr, Plano, TX 75075<br/><b><u>First Year Closed:</b></u> 2025-26",
        "styleUrl": "#Closing"
      }
    },
    {
      "type": "Feature",
      "geometry": {
        "type": "Point",
        "coordinates": [
          -96.662943,
          33.020988
        ]
      },
      "properties": {
        "description": "<b><u>District:</u></b> Plano ISD<br/><b><u>Address:</u></b> 3600 Timberline Dr, Plano, TX 75074<br/><b><u>First Year Closed:</b></u> 2025-26",
        "styleUrl": "#Closing"
      }
    },
    {
      "type": "Feature",
      "geometry": {
        "type": "Point",
        "coordinates": [
          -96.749193,
          32.968331
        ]
      },
      "properties": {
        "description": "<b><u>District:</u></b> Richardson ISD<br/><b><u>Address:</u></b> 1313 West Shore Dr, Richardson, TX 75080<br/><b><u>First Year Closed:</b></u> 2024-25",
        "styleUrl": "#Closed"
      }
    },
    {
      "type": "Feature",
      "geometry": {
        "type": "Point",
        "coordinates": [
          -96.690294,
          32.939097
        ]
      },
      "properties": {
        "description": "<b><u>District:</u></b> Richardson ISD<br/><b><u>Address:</u></b> 1801 E Spring Valley Rd, Richardson, TX 75081<br/><b><u>First Year Closed:</b></u> 2024-25",
        "styleUrl": "#Closed"
      }
    },
    {
      "type": "Feature",
      "geometry": {
        "type": "Point",
        "coordinates": [
          -96.775785,
          32.933509
        ]
      },
      "properties": {
        "description": "<b><u>District:</u></b> Richardson ISD<br/><b><u>Address:</u></b> 13535 Spring Grove Ave, Dallas, TX 75240<br/><b><u>First Year Closed:</b></u> 2024-25",
        "styleUrl": "#Closed"
      }
    },
    {
      "type": "Feature",
      "geometry": {
        "type": "Point",
        "coordinates": [
          -96.724616,
          32.902396
        ]
      },
      "properties": {
        "description": "<b><u>District:</u></b> Richardson ISD<br/><b><u>Address:</u></b> 9666 Ferris Branch Blvd, Dallas, TX 75243<br/><b><u>First Year Closed:</b></u> 2024-25",
        "styleUrl": "#Closed"
      }
    },
    {
      "type": "Feature",
      "geometry": {
        "type": "Point",
        "coordinates": [
          -96.763798,
          32.934693
        ]
      },
      "properties": {
        "description": "<b><u>District:</u></b> Richardson ISD<br/><b><u>Address:</u></b> 14040 Rolling Hills Ln, Dallas, TX 75240<br/><b><u>First Year Closed:</b></u> 2025-26",
        "styleUrl": "#Closing"
      }
    },
    {
      "type": "Feature",
      "geometry": {
        "type": "Point",
        "coordinates": [
          -96.873547,
          33.005828
        ]
      },
      "properties": {
        "description": "<b><u>District:</u></b> Carrollton-Farmers Branch ISD<br/><b><u>Address:</u></b> 3210 Furneaux Ln, Carrollton, TX 75007<br/><b><u>First Year Closed:</b></u> 2025-26",
        "styleUrl": "#Closing"
      }
    },
    {
      "type": "Feature",
      "geometry": {
        "type": "Point",
        "coordinates": [
          -96.894097,
          32.945169
        ]
      },
      "properties": {
        "description": "<b><u>District:</u></b> Carrollton-Farmers Branch ISD<br/><b><u>Address:</u></b> 1600 S Perry Rd, Carrollton, TX 75006<br/><b><u>First Year Closed:</b></u> 2025-26",
        "styleUrl": "#Closing"
      }
    },
    {
      "type": "Feature",
      "geometry": {
        "type": "Point",
        "coordinates": [
          -96.898114,
          32.98152
        ]
      },
      "properties": {
        "description": "<b><u>District:</u></b> Carrollton-Farmers Branch ISD<br/><b><u>Address:</u></b> 2425 McCoy Rd, Carrollton, TX 75006<br/><b><u>First Year Closed:</b></u> 2025-26",
        "styleUrl": "#Closing"
      }
    },
    {
      "type": "Feature",
      "geometry": {
        "type": "Point",
        "coordinates": [
          -96.869779,
          32.997849
        ]
      },
      "properties": {
        "description": "<b><u>District:</u></b> Carrollton-Farmers Branch ISD<br/><b><u>Address:</u></b> 2525 Frankford Rd, Dallas, TX 75287<br/><b><u>First Year Closed:</b></u> 2025-26",
        "styleUrl": "#Closing"
      }
    },
    {
      "type": "Feature",
      "geometry": {
        "type": "Point",
        "coordinates": [
          -96.651959,
          33.099388
        ]
      },
      "properties": {
        "description": "<b><u>District:</u></b> Allen ISD<br/><b><u>Address:</u></b> 800 E Main St, Allen, TX 75002<br/><b><u>First Year Closed:</b></u> 2023-24",
        "styleUrl": "#Repurposed"
      }
    },
    {
      "type": "Feature",
      "geometry": {
        "type": "Point",
        "coordinates": [
          -96.636189,
          33.102854
        ]
      },
      "properties": {
        "description": "<b><u>District:</u></b> Allen ISD<br/><b><u>Address:</u></b> 305 N Alder Dr Allen, TX 75002<br/><b><u>First Year Closed:</b></u> 2023-24",
        "styleUrl": "#Repurposed"
      }
    },
    {
      "type": "Feature",
      "geometry": {
        "type": "Point",
        "coordinates": [
          -96.789384,
          32.801614
        ]
      },
      "properties": {
        "description": "<b><u>District:</u></b> Dallas ISD<br/><b><u>Address:</u></b> 2211 Caddo St, Dallas, TX 75204<br/><b><u>First Year Closed:</b></u> 2025-26",
        "styleUrl": "#Consolidated"
      }
    },
    {
      "type": "Feature",
      "geometry": {
        "type": "Point",
        "coordinates": [
          -96.813258,
          32.810214
        ]
      },
      "properties": {
        "description": "<b><u>District:</u></b> Dallas ISD<br/><b><u>Address:</u></b> 2827 Throckmorton St, Dallas, TX 75219<br/><b><u>First Year Closed:</b></u> 2025-26",
        "styleUrl": "#Consolidated"
      }
    },
    {
      "type": "Feature",
      "geometry": {
        "type": "Point",
        "coordinates": [
          -97.252449,
          32.707491
        ]
      },
      "properties": {
        "description": "<b><u>District:</u></b> Fort Worth ISD<br/><b><u>Address:</u></b> 3800 Anglin Dr, Fort Worth, TX 76119<br/><b><u>First Year Closed:</b></u> 2027-28",
        "styleUrl": "#Closing"
      }
    },
    {
      "type": "Feature",
      "geometry": {
        "type": "Point",
        "coordinates": [
          -97.208273,
          32.751934
        ]
      },
      "properties": {
        "description": "<b><u>District:</u></b> Fort Worth ISD<br/><b><u>Address:</u></b> 1850 Barron Ln, Fort Worth, TX 76112<br/><b><u>First Year Closed:</b></u> 2027-28",
        "styleUrl": "#Closing"
      }
    },
    {
      "type": "Feature",
      "geometry": {
        "type": "Point",
        "coordinates": [
          -97.32925,
          32.762333
        ]
      },
      "properties": {
        "description": "<b><u>District:</u></b> Fort Worth ISD<br/><b><u>Address:</u></b> 401 Samuels Ave, Fort Worth, TX 76102<br/><b><u>First Year Closed:</b></u> 2026-27",
        "styleUrl": "#Closing"
      }
    },
    {
      "type": "Feature",
      "geometry": {
        "type": "Point",
        "coordinates": [
          -97.334589,
          32.728793
        ]
      },
      "properties": {
        "description": "<b><u>District:</u></b> Fort Worth ISD<br/><b><u>Address:</u></b> 1419 College Ave, Fort Worth, TX 76104<br/><b><u>First Year Closed:</b></u> 2027-28",
        "styleUrl": "#Closing"
      }
    },
    {
      "type": "Feature",
      "geometry": {
        "type": "Point",
        "coordinates": [
          -97.230999,
          32.748234
        ]
      },
      "properties": {
        "description": "<b><u>District:</u></b> Fort Worth ISD<br/><b><u>Address:</u></b> 0<br/><b><u>First Year Closed:</b></u> 2025-26",
        "styleUrl": "#Closing"
      }
    },
    {
      "type": "Feature",
      "geometry": {
        "type": "Point",
        "coordinates": [
          -97.307451,
          32.711764
        ]
      },
      "properties": {
        "description": "<b><u>District:</u></b> Fort Worth ISD<br/><b><u>Address:</u></b> 2751 Yuma Ave, Fort Worth, TX 76104<br/><b><u>First Year Closed:</b></u> 2026-27",
        "styleUrl": "#Closing"
      }
    },
    {
      "type": "Feature",
      "geometry": {
        "type": "Point",
        "coordinates": [
          -97.274928,
          32.676261
        ]
      },
      "properties": {
        "description": "<b><u>District:</u></b> Fort Worth ISD<br/><b><u>Address:</u></b> 5615 Forest Hill Dr, Forest Hill, TX 76119<br/><b><u>First Year Closed:</b></u> 2028-29",
        "styleUrl": "#Closing"
      }
    },
    {
      "type": "Feature",
      "geometry": {
        "type": "Point",
        "coordinates": [
          -97.338877,
          32.678628
        ]
      },
      "properties": {
        "description": "<b><u>District:</u></b> Fort Worth ISD<br/><b><u>Address:</u></b> 1333 W Spurgeon St, Fort Worth, TX 76115<br/><b><u>First Year Closed:</b></u> 2029-30",
        "styleUrl": "#Closing"
      }
    },
    {
      "type": "Feature",
      "geometry": {
        "type": "Point",
        "coordinates": [
          -97.34226,
          32.807908
        ]
      },
      "properties": {
        "description": "<b><u>District:</u></b> Fort Worth ISD<br/><b><u>Address:</u></b> 3524 N Crump St, Fort Worth, TX 76106<br/><b><u>First Year Closed:</b></u> 2028-29",
        "styleUrl": "#Closing"
      }
    },
    {
      "type": "Feature",
      "geometry": {
        "type": "Point",
        "coordinates": [
          -97.392824,
          32.654217
        ]
      },
      "properties": {
        "description": "<b><u>District:</u></b> Fort Worth ISD<br/><b><u>Address:</u></b> 6161 Wrigley Way, Fort Worth, TX 76133<br/><b><u>First Year Closed:</b></u> 2027-28",
        "styleUrl": "#Closing"
      }
    },
    {
      "type": "Feature",
      "geometry": {
        "type": "Point",
        "coordinates": [
          -97.360153,
          32.80302
        ]
      },
      "properties": {
        "description": "<b><u>District:</u></b> Fort Worth ISD<br/><b><u>Address:</u></b> 0<br/><b><u>First Year Closed:</b></u> 2029-30",
        "styleUrl": "#Closing"
      }
    },
    {
      "type": "Feature",
      "geometry": {
        "type": "Point",
        "coordinates": [
          -97.364374,
          32.695826
        ]
      },
      "properties": {
        "description": "<b><u>District:</u></b> Fort Worth ISD<br/><b><u>Address:</u></b> 3201 S Hills Ave, Fort Worth, TX 76109<br/><b><u>First Year Closed:</b></u> 2028-29",
        "styleUrl": "#Closing"
      }
    },
    {
      "type": "Feature",
      "geometry": {
        "type": "Point",
        "coordinates": [
          -97.361338,
          32.80396
        ]
      },
      "properties": {
        "description": "<b><u>District:</u></b> Fort Worth ISD<br/><b><u>Address:</u></b> 3229 Lincoln Ave, Fort Worth, TX 76106<br/><b><u>First Year Closed:</b></u> 2026-27",
        "styleUrl": "#Closing"
      }
    },
    {
      "type": "Feature",
      "geometry": {
        "type": "Point",
        "coordinates": [
          -97.311775,
          32.712147
        ]
      },
      "properties": {
        "description": "<b><u>District:</u></b> Fort Worth ISD<br/><b><u>Address:</u></b> 2751 Mississippi Ave, Fort Worth, TX 76104<br/><b><u>First Year Closed:</b></u> 2029-30",
        "styleUrl": "#Closing"
      }
    },
    {
      "type": "Feature",
      "geometry": {
        "type": "Point",
        "coordinates": [
          -97.295589,
          32.803712
        ]
      },
      "properties": {
        "description": "<b><u>District:</u></b> Fort Worth ISD<br/><b><u>Address:</u></b> 3600 Fossil Dr, Fort Worth, TX 76111<br/><b><u>First Year Closed:</b></u> 2026-27",
        "styleUrl": "#Closing"
      }
    },
    {
      "type": "Feature",
      "geometry": {
        "type": "Point",
        "coordinates": [
          -97.265656,
          32.722721
        ]
      },
      "properties": {
        "description": "<b><u>District:</u></b> Fort Worth ISD<br/><b><u>Address:</u></b> 4000 Avenue N, Fort Worth, TX 76105<br/><b><u>First Year Closed:</b></u> 2025-26",
        "styleUrl": "#Closing"
      }
    },
    {
      "type": "Feature",
      "geometry": {
        "type": "Point",
        "coordinates": [
          -97.237319,
          32.711776
        ]
      },
      "properties": {
        "description": "<b><u>District:</u></b> Fort Worth ISD<br/><b><u>Address:</u></b> 3409 Stalcup Rd, Fort Worth, TX 76119<br/><b><u>First Year Closed:</b></u> 2028-29",
        "styleUrl": "#Closing"
      }
    },
    {
      "type": "Feature",
      "geometry": {
        "type": "Point",
        "coordinates": [
          -97.227156,
          32.739918
        ]
      },
      "properties": {
        "description": "<b><u>District:</u></b> Fort Worth ISD<br/><b><u>Address:</u></b> 2749 Putnam St, Fort Worth, TX 76112<br/><b><u>First Year Closed:</b></u> 2028-29",
        "styleUrl": "#Closing"
      }
    },
    {
      "type": "Feature",
      "geometry": {
        "type": "Point",
        "coordinates": [
          -97.437999,
          32.811082
        ]
      },
      "properties": {
        "description": "<b><u>District:</u></b> Lake Worth ISD<br/><b><u>Address:</u></b> 3801 Merrett Dr, Lake Worth, TX 76135<br/><b><u>First Year Closed:</b></u> 2025-26",
        "styleUrl": "#Closing"
      }
    },
    {
      "type": "Feature",
      "geometry": {
        "type": "Point",
        "coordinates": [
          -97.360153,
          32.80302
        ]
      },
      "properties": {
        "description": "<b><u>District:</u></b> Fort Worth ISD<br/><b><u>Address:</u></b> 3201 Refugio Ave, Fort Worth, TX 76106<br/><b><u>First Year Closed:</b></u> 2029-30",
        "styleUrl": "#Under Review"
      }
    },
    {
      "type": "Feature",
      "geometry": {
        "type": "Point",
        "coordinates": [
          -97.361338,
          32.80396
        ]
      },
      "properties": {
        "description": "<b><u>District:</u></b> Fort Worth ISD<br/><b><u>Address:</u></b> 3229 Lincoln Ave, Fort Worth, TX 76106<br/><b><u>First Year Closed:</b></u> 2026-27",
        "styleUrl": "#Under Review"
      }
    },
    {
      "type": "Feature",
      "geometry": {
        "type": "Point",
        "coordinates": [
          -95.364614,
          29.933352
        ]
      },
      "properties": {
        "description": "<b><u>District:</u></b> Aldine ISD<br/><b><u>Address:</u></b> 1420 Aldine Meadows Rd, Houston, TX 77032<br/><b><u>First Year Closed:</b></u> 2025-26",
        "styleUrl": "#Closing"
      }
    },
    {
      "type": "Feature",
      "geometry": {
        "type": "Point",
        "coordinates": [
          -95.456586,
          29.880669
        ]
      },
      "properties": {
        "description": "<b><u>District:</u></b> Aldine ISD<br/><b><u>Address:</u></b> 3025 Ellington St, Houston, TX 77088<br/><b><u>First Year Closed:</b></u> 2025-26",
        "styleUrl": "#Closing"
      }
    },
    {
      "type": "Feature",
      "geometry": {
        "type": "Point",
        "coordinates": [
          -95.363177,
          29.933989
        ]
      },
      "properties": {
        "description": "<b><u>District:</u></b> Aldine ISD<br/><b><u>Address:</u></b> 1430 Aldine Meadows Rd, Houston, TX 77032<br/><b><u>First Year Closed:</b></u> 2025-26",
        "styleUrl": "#Closing"
      }
    },
    {
      "type": "Feature",
      "geometry": {
        "type": "Point",
        "coordinates": [
          -95.324722,
          29.904883
        ]
      },
      "properties": {
        "description": "<b><u>District:</u></b> Aldine ISD<br/><b><u>Address:</u></b> 12345 Vickery St, Houston, TX 77039<br/><b><u>First Year Closed:</b></u> 2025-26",
        "styleUrl": "#Closing"
      }
    },
    {
      "type": "Feature",
      "geometry": {
        "type": "Point",
        "coordinates": [
          -95.360939,
          29.910219
        ]
      },
      "properties": {
        "description": "<b><u>District:</u></b> Aldine ISD<br/><b><u>Address:</u></b> 1605 Connorvale Rd, Houston, TX 77039<br/><b><u>First Year Closed:</b></u> 2025-26",
        "styleUrl": "#Closing"
      }
    },
    {
      "type": "Feature",
      "geometry": {
        "type": "Point",
        "coordinates": [
          -95.475081,
          29.862713
        ]
      },
      "properties": {
        "description": "<b><u>District:</u></b> Aldine ISD<br/><b><u>Address:</u></b> 5815 W Little York Rd, Houston, TX 77091<br/><b><u>First Year Closed:</b></u> 2025-26",
        "styleUrl": "#Closing"
      }
    },
    {
      "type": "Feature",
      "geometry": {
        "type": "Point",
        "coordinates": [
          -98.423708,
          29.487769
        ]
      },
      "properties": {
        "description": "<b><u>District:</u></b> North East ISD<br/><b><u>Address:</u></b> 6523 Cascade Pl, San Antonio, TX 78218<br/><b><u>First Year Closed:</b></u> 2025-26",
        "styleUrl": "#Closing"
      }
    },
    {
      "type": "Feature",
      "geometry": {
        "type": "Point",
        "coordinates": [
          -98.407527,
          29.530075
        ]
      },
      "properties": {
        "description": "<b><u>District:</u></b> North East ISD<br/><b><u>Address:</u></b> 4311 Clearspring Dr, San Antonio, TX 78217<br/><b><u>First Year Closed:</b></u> 2025-26",
        "styleUrl": "#Closing"
      }
    },
    {
      "type": "Feature",
      "geometry": {
        "type": "Point",
        "coordinates": [
          -98.431017,
          29.595427
        ]
      },
      "properties": {
        "description": "<b><u>District:</u></b> North East ISD<br/><b><u>Address:</u></b> 17150 Jones Maltsberger Rd, San Antonio, TX 78247<br/><b><u>First Year Closed:</b></u> 2025-26",
        "styleUrl": "#Closing"
      }
    },
    {
      "type": "Feature",
      "geometry": {
        "type": "Point",
        "coordinates": [
          -98.562261,
          29.390116
        ]
      },
      "properties": {
        "description": "<b><u>District:</u></b> Edgewood ISD<br/><b><u>Address:</u></b> 2525 S General McMullen Dr, San Antonio, TX 78226<br/><b><u>First Year Closed:</b></u> 2024-25",
        "styleUrl": "#Closed"
      }
    },
    {
      "type": "Feature",
      "geometry": {
        "type": "Point",
        "coordinates": [
          -98.588742,
          29.423295
        ]
      },
      "properties": {
        "description": "<b><u>District:</u></b> Edgewood ISD<br/><b><u>Address:</u></b> 627 S Acme Rd, San Antonio, TX 78237<br/><b><u>First Year Closed:</b></u> 2024-25",
        "styleUrl": "#Closed"
      }
    },
    {
      "type": "Feature",
      "geometry": {
        "type": "Point",
        "coordinates": [
          -98.318072,
          29.550533
        ]
      },
      "properties": {
        "description": "<b><u>District:</u></b> Judson ISD<br/><b><u>Address:</u></b> 213 Amistad Blvd, Universal City, TX 78148<br/><b><u>First Year Closed:</b></u> 2025-26",
        "styleUrl": "#Closing"
      }
    },
    {
      "type": "Feature",
      "geometry": {
        "type": "Point",
        "coordinates": [
          -98.561341,
          29.486347
        ]
      },
      "properties": {
        "description": "<b><u>District:</u></b> San Antonio ISD<br/><b><u>Address:</u></b> 630 Crestview Dr, San Antonio, TX 78201<br/><b><u>First Year Closed:</b></u> 2026-27",
        "styleUrl": "#Closing"
      }
    },
    {
      "type": "Feature",
      "geometry": {
        "type": "Point",
        "coordinates": [
          -98.509163,
          29.4365
        ]
      },
      "properties": {
        "description": "<b><u>District:</u></b> San Antonio ISD<br/><b><u>Address:</u></b> 439 Arbor Place, San Antonio, TX 78207<br/><b><u>First Year Closed:</b></u> 2023-24",
        "styleUrl": "#Repurposed"
      }
    },
    {
      "type": "Feature",
      "geometry": {
        "type": "Point",
        "coordinates": [
          -98.534706,
          29.408404
        ]
      },
      "properties": {
        "description": "<b><u>District:</u></b> San Antonio ISD<br/><b><u>Address:</u></b> 906 Merida St, San Antonio, TX 78207<br/><b><u>First Year Closed:</b></u> 2024-25",
        "styleUrl": "#Repurposed"
      }
    },
    {
      "type": "Feature",
      "geometry": {
        "type": "Point",
        "coordinates": [
          -98.48531,
          29.413899
        ]
      },
      "properties": {
        "description": "<b><u>District:</u></b> San Antonio ISD<br/><b><u>Address:</u></b> 406 Barrera St, San Antonio, TX 78210<br/><b><u>First Year Closed:</b></u> 2024-25",
        "styleUrl": "#Repurposed"
      }
    },
    {
      "type": "Feature",
      "geometry": {
        "type": "Point",
        "coordinates": [
          -98.414369,
          29.40747
        ]
      },
      "properties": {
        "description": "<b><u>District:</u></b> San Antonio ISD<br/><b><u>Address:</u></b> 463 Holmgreen Rd, San Antonio, TX 78220<br/><b><u>First Year Closed:</b></u> 2027-28",
        "styleUrl": "#Closing"
      }
    },
    {
      "type": "Feature",
      "geometry": {
        "type": "Point",
        "coordinates": [
          -122.32174,
          47.650069
        ]
      },
      "properties": {
        "description": "<b><u>District:</u></b> San Antonio ISD<br/><b><u>Address:</u></b> 318 Martin Luther King Dr.<br/><b><u>First Year Closed:</b></u> 2024-25",
        "styleUrl": "#Closed"
      }
    },
    {
      "type": "Feature",
      "geometry": {
        "type": "Point",
        "coordinates": [
          -98.444452,
          29.359971
        ]
      },
      "properties": {
        "description": "<b><u>District:</u></b> San Antonio ISD<br/><b><u>Address:</u></b> 6718 Pecan Valley Dr, San Antonio, TX 78223<br/><b><u>First Year Closed:</b></u> 2026-27",
        "styleUrl": "#Closing"
      }
    },
    {
      "type": "Feature",
      "geometry": {
        "type": "Point",
        "coordinates": [
          -98.427911,
          29.409655
        ]
      },
      "properties": {
        "description": "<b><u>District:</u></b> San Antonio ISD<br/><b><u>Address:</u></b> 510 Morningview Dr, San Antonio, TX 78220<br/><b><u>First Year Closed:</b></u> 2027-28",
        "styleUrl": "#Closing"
      }
    },
    {
      "type": "Feature",
      "geometry": {
        "type": "Point",
        "coordinates": [
          -98.462307,
          29.398986
        ]
      },
      "properties": {
        "description": "<b><u>District:</u></b> San Antonio ISD<br/><b><u>Address:</u></b> 635 Rigsby Ave, San Antonio, TX 78210<br/><b><u>First Year Closed:</b></u> 2024-25",
        "styleUrl": "#Closed"
      }
    },
    {
      "type": "Feature",
      "geometry": {
        "type": "Point",
        "coordinates": [
          -98.57391,
          29.45469
        ]
      },
      "properties": {
        "description": "<b><u>District:</u></b> San Antonio ISD<br/><b><u>Address:</u></b> 247 Bangor Dr, San Antonio, TX 78228<br/><b><u>First Year Closed:</b></u> 2024-25",
        "styleUrl": "#Closed"
      }
    },
    {
      "type": "Feature",
      "geometry": {
        "type": "Point",
        "coordinates": [
          -98.541179,
          29.394786
        ]
      },
      "properties": {
        "description": "<b><u>District:</u></b> San Antonio ISD<br/><b><u>Address:</u></b> 1026 Thompson Pl, San Antonio, TX 78226<br/><b><u>First Year Closed:</b></u> 2026-27",
        "styleUrl": "#Closing"
      }
    },
    {
      "type": "Feature",
      "geometry": {
        "type": "Point",
        "coordinates": [
          -98.500842,
          29.393705
        ]
      },
      "properties": {
        "description": "<b><u>District:</u></b> San Antonio ISD<br/><b><u>Address:</u></b> 302 Tipton Ave, San Antonio, TX 78204<br/><b><u>First Year Closed:</b></u> 2024-25",
        "styleUrl": "#Closed"
      }
    },
    {
      "type": "Feature",
      "geometry": {
        "type": "Point",
        "coordinates": [
          -98.465731,
          29.458967
        ]
      },
      "properties": {
        "description": "<b><u>District:</u></b> San Antonio ISD<br/><b><u>Address:</u></b> 201 Parland Pl, San Antonio, TX 78209<br/><b><u>First Year Closed:</b></u> 2024-25",
        "styleUrl": "#Closed"
      }
    },
    {
      "type": "Feature",
      "geometry": {
        "type": "Point",
        "coordinates": [
          -98.527802,
          29.447116
        ]
      },
      "properties": {
        "description": "<b><u>District:</u></b> San Antonio ISD<br/><b><u>Address:</u></b> 1014 Waverly Ave, San Antonio, TX 78201<br/><b><u>First Year Closed:</b></u> 2024-25",
        "styleUrl": "#Closed"
      }
    },
    {
      "type": "Feature",
      "geometry": {
        "type": "Point",
        "coordinates": [
          -98.466836,
          29.425386
        ]
      },
      "properties": {
        "description": "<b><u>District:</u></b> San Antonio ISD<br/><b><u>Address:</u></b> 1931 E Houston St San Antonio, TX 78202<br/><b><u>First Year Closed:</b></u> N/A",
        "styleUrl": "#Repurposed"
      }
    },
    {
      "type": "Feature",
      "geometry": {
        "type": "Point",
        "coordinates": [
          -98.461761,
          29.387415
        ]
      },
      "properties": {
        "description": "<b><u>District:</u></b> San Antonio ISD<br/><b><u>Address:</u></b> 722 Haggin St, San Antonio, TX 78210<br/><b><u>First Year Closed:</b></u> 2024-25",
        "styleUrl": "#Closed"
      }
    },
    {
      "type": "Feature",
      "geometry": {
        "type": "Point",
        "coordinates": [
          -98.528645,
          29.403339
        ]
      },
      "properties": {
        "description": "<b><u>District:</u></b> San Antonio ISD<br/><b><u>Address:</u></b> 435 Brady Blvd, San Antonio, TX 78207<br/><b><u>First Year Closed:</b></u> 2024-25",
        "styleUrl": "#Closed"
      }
    },
    {
      "type": "Feature",
      "geometry": {
        "type": "Point",
        "coordinates": [
          -98.406648,
          29.422422
        ]
      },
      "properties": {
        "description": "<b><u>District:</u></b> San Antonio ISD<br/><b><u>Address:</u></b> 545 S WW White Rd, San Antonio, TX 78220<br/><b><u>First Year Closed:</b></u> 2024-25",
        "styleUrl": "#Closed"
      }
    },
    {
      "type": "Feature",
      "geometry": {
        "type": "Point",
        "coordinates": [
          -98.298254,
          29.511661
        ]
      },
      "properties": {
        "description": "<b><u>District:</u></b> Judson ISD<br/><b><u>Address:</u></b> 9695 Schaefer Rd, Converse, TX 78109<br/><b><u>First Year Closed:</b></u> 2025-26",
        "styleUrl": "#Proposed"
      }
    },
    {
      "type": "Feature",
      "geometry": {
        "type": "Point",
        "coordinates": [
          -98.368698,
          29.45746
        ]
      },
      "properties": {
        "description": "<b><u>District:</u></b> Judson ISD<br/><b><u>Address:</u></b> 3635 Candleglenn, San Antonio, TX 78244<br/><b><u>First Year Closed:</b></u> 2025-26",
        "styleUrl": "#Proposed"
      }
    },
    {
      "type": "Feature",
      "geometry": {
        "type": "Point",
        "coordinates": [
          -98.335045,
          29.552407
        ]
      },
      "properties": {
        "description": "<b><u>District:</u></b> Judson ISD<br/><b><u>Address:</u></b> 12301 Welcome Dr, Live Oak, TX 78233<br/><b><u>First Year Closed:</b></u> 2025-26",
        "styleUrl": "#Proposed"
      }
    },
    {
      "type": "Feature",
      "geometry": {
        "type": "Point",
        "coordinates": [
          -101.833346,
          35.229598
        ]
      },
      "properties": {
        "description": "<b><u>District:</u></b> Amarillo ISD<br/><b><u>Address:</u></b> 119 NE 15th Ave, Amarillo, TX 79107<br/><b><u>First Year Closed:</b></u> 2025-26",
        "styleUrl": "#Closing"
      }
    },
    {
      "type": "Feature",
      "geometry": {
        "type": "Point",
        "coordinates": [
          -101.831697,
          35.255401
        ]
      },
      "properties": {
        "description": "<b><u>District:</u></b> Amarillo ISD<br/><b><u>Address:</u></b> 4413 River Rd, Amarillo, TX 79108<br/><b><u>First Year Closed:</b></u> 2025-26",
        "styleUrl": "#Closing"
      }
    },
    {
      "type": "Feature",
      "geometry": {
        "type": "Point",
        "coordinates": [
          -101.777104,
          35.196829
        ]
      },
      "properties": {
        "description": "<b><u>District:</u></b> Amarillo ISD<br/><b><u>Address:</u></b> 5123 SE 14th Ave, Amarillo, TX 79104<br/><b><u>First Year Closed:</b></u> 2025-26",
        "styleUrl": "#Closing"
      }
    },
    {
      "type": "Feature",
      "geometry": {
        "type": "Point",
        "coordinates": [
          -94.712271,
          31.350249
        ]
      },
      "properties": {
        "description": "<b><u>District:</u></b> Lufkin ISD<br/><b><u>Address:</u></b> 707 Trenton St, Lufkin, TX 75901<br/><b><u>First Year Closed:</b></u> 2025-26",
        "styleUrl": "#Closing"
      }
    },
    {
      "type": "Feature",
      "geometry": {
        "type": "Point",
        "coordinates": [
          -94.72027,
          31.321969
        ]
      },
      "properties": {
        "description": "<b><u>District:</u></b> Lufkin ISD<br/><b><u>Address:</u></b> 521 York Dr, Lufkin, TX 75901<br/><b><u>First Year Closed:</b></u> 2025-26",
        "styleUrl": "#Closing"
      }
    },
    {
      "type": "Feature",
      "geometry": {
        "type": "Point",
        "coordinates": [
          -106.534456,
          31.843242
        ]
      },
      "properties": {
        "description": "<b><u>District:</u></b> El Paso ISD<br/><b><u>Address:</u></b> 6445 Escondido Dr, El Paso, TX 79912<br/><b><u>First Year Closed:</b></u> 2025-26",
        "styleUrl": "#Closing"
      }
    },
    {
      "type": "Feature",
      "geometry": {
        "type": "Point",
        "coordinates": [
          -106.482975,
          31.776721
        ]
      },
      "properties": {
        "description": "<b><u>District:</u></b> El Paso ISD<br/><b><u>Address:</u></b> 1440 E Cliff Dr, El Paso, TX 79902<br/><b><u>First Year Closed:</b></u> 2025-26",
        "styleUrl": "#Closing"
      }
    },
    {
      "type": "Feature",
      "geometry": {
        "type": "Point",
        "coordinates": [
          -106.413202,
          31.910183
        ]
      },
      "properties": {
        "description": "<b><u>District:</u></b> El Paso ISD<br/><b><u>Address:</u></b> 10275 Alcan St, El Paso, TX 79924<br/><b><u>First Year Closed:</b></u> 2025-26",
        "styleUrl": "#Closing"
      }
    },
    {
      "type": "Feature",
      "geometry": {
        "type": "Point",
        "coordinates": [
          -106.538021,
          31.831657
        ]
      },
      "properties": {
        "description": "<b><u>District:</u></b> El Paso ISD<br/><b><u>Address:</u></b> 6508 Fiesta Dr, El Paso, TX 79912<br/><b><u>First Year Closed:</b></u> 2025-26",
        "styleUrl": "#Closing"
      }
    },
    {
      "type": "Feature",
      "geometry": {
        "type": "Point",
        "coordinates": [
          -106.453786,
          31.808848
        ]
      },
      "properties": {
        "description": "<b><u>District:</u></b> El Paso ISD<br/><b><u>Address:</u></b> 3601 N Copia St, El Paso, TX 79930<br/><b><u>First Year Closed:</b></u> 2025-26",
        "styleUrl": "#Closing"
      }
    },
    {
      "type": "Feature",
      "geometry": {
        "type": "Point",
        "coordinates": [
          -106.446718,
          31.772095
        ]
      },
      "properties": {
        "description": "<b><u>District:</u></b> El Paso ISD<br/><b><u>Address:</u></b> 51 N Hammett St, El Paso, TX 79905<br/><b><u>First Year Closed:</b></u> 2025-26",
        "styleUrl": "#Closing"
      }
    },
    {
      "type": "Feature",
      "geometry": {
        "type": "Point",
        "coordinates": [
          -106.413331,
          31.869687
        ]
      },
      "properties": {
        "description": "<b><u>District:</u></b> El Paso ISD<br/><b><u>Address:</u></b> 5414 Hondo Pass Dr, El Paso, TX 79924<br/><b><u>First Year Closed:</b></u> 2026-27",
        "styleUrl": "#Closing"
      }
    },
    {
      "type": "Feature",
      "geometry": {
        "type": "Point",
        "coordinates": [
          -106.449031,
          31.820882
        ]
      },
      "properties": {
        "description": "<b><u>District:</u></b> El Paso ISD<br/><b><u>Address:</u></b> 5000 N Stevens St, El Paso, TX 79930<br/><b><u>First Year Closed:</b></u> 2026-27",
        "styleUrl": "#Closing"
      }
    }
  ]
}