<?xml version="1.0" encoding="UTF-8"?>
<kml xmlns="http://www.opengis.net/kml/2.2">
  <Document>
    <Style id="Target">
      <IconStyle>
        <Icon>
          <href>http://maps.google.com/mapfiles/ms/icons/red-dot.png</href>
        </Icon>
      </IconStyle>
    </Style>
<Placemark>
<n>Armstrong Middle School</n>
<styleUrl>#Closed</styleUrl>
<description><![CDATA[<b><u>Address:</u></b> 3805 Timberline Dr, Plano, TX 75074<br/><b><u>First Year Closed:</u></b> 2025-26<br/><b><u>Reuse Status:</u></b> Unavailable]]></description>
<Point>
<coordinates>-96.659294,33.021428</coordinates>
</Point>
</Placemark>
<Placemark>
<n>Davis Elementary School</n>
<styleUrl>#Closed</styleUrl>
<description><![CDATA[<b><u>Address:</u></b> 2701 Parkhaven Dr, Plano, TX 75075<br/><b><u>First Year Closed:</u></b> 2025-26<br/><b><u>Reuse Status:</u></b> Unavailable]]></description>
<Point>
<coordinates>-96.745914,33.034473</coordinates>
</Point>
</Placemark>
<Placemark>
<n>Forman Elementary School</n>
<styleUrl>#Closed</styleUrl>
<description><![CDATA[<b><u>Address:</u></b> 3600 Timberline Dr, Plano, TX 75074<br/><b><u>First Year Closed:</u></b> 2025-26<br/><b><u>Reuse Status:</u></b> Unavailable]]></description>
<Point>
<coordinates>-96.662943,33.020988</coordinates>
</Point>
</Placemark>
<Placemark>
<n>Spring Valley Elementary</n>
<styleUrl>#Closed</styleUrl>
<description><![CDATA[<b><u>Address:</u></b> 13535 Spring Grove Ave, Dallas, TX 75240<br/><b><u>First Year Closed:</u></b> 2024-25<br/><b><u>Reuse Status:</u></b> Unavailable]]></description>
<Point>
<coordinates>-96.775785,32.933509</coordinates>
</Point>
</Placemark>
<Placemark>
<n>Thurgood Marshall Elementary</n>
<styleUrl>#Closed</styleUrl>
<description><![CDATA[<b><u>Address:</u></b> 9666 Ferris Branch Blvd, Dallas, TX 75243<br/><b><u>First Year Closed:</u></b> 2024-25<br/><b><u>Reuse Status:</u></b> Unavailable]]></description>
<Point>
<coordinates>-96.724616,32.902396</coordinates>
</Point>
</Placemark>
<Placemark>
<n>Furneaux Elementary</n>
<styleUrl>#Closed</styleUrl>
<description><![CDATA[<b><u>Address:</u></b> 3210 Furneaux Ln, Carrollton, TX 75007<br/><b><u>First Year Closed:</u></b> 2025-26<br/><b><u>Reuse Status:</u></b> Unavailable]]></description>
<Point>
<coordinates>-96.87288,33.005856</coordinates>
</Point>
</Placemark>
<Placemark>
<n>Central Elementary</n>
<styleUrl>#Closed</styleUrl>
<description><![CDATA[<b><u>Address:</u></b> 1600 S Perry Rd, Carrollton, TX 75006<br/><b><u>First Year Closed:</u></b> 2025-26<br/><b><u>Reuse Status:</u></b> Unavailable]]></description>
<Point>
<coordinates>-96.895319,32.945367</coordinates>
</Point>
</Placemark>
<Placemark>
<n>Long Middle School</n>
<styleUrl>#Closed</styleUrl>
<description><![CDATA[<b><u>Address:</u></b> 2525 Frankford Rd, Dallas, TX 75287<br/><b><u>First Year Closed:</u></b> 2025-26<br/><b><u>Reuse Status:</u></b> Unavailable]]></description>
<Point>
<coordinates>-96.869779,32.997849</coordinates>
</Point>
</Placemark>
<Placemark>
<n>Wilshire Elementary</n>
<styleUrl>#Closed</styleUrl>
<description><![CDATA[<b><u>Address:</u></b> 6523 Cascade Pl, San Antonio, TX 78218<br/><b><u>First Year Closed:</u></b> 2025-26<br/><b><u>Reuse Status:</u></b> Unavailable]]></description>
<Point>
<coordinates>-98.423708,29.487769</coordinates>
</Point>
</Placemark>
<Placemark>
<n>Clear Spring Elementary</n>
<styleUrl>#Closed</styleUrl>
<description><![CDATA[<b><u>Address:</u></b> 4311 Clearspring Dr, San Antonio, TX 78217<br/><b><u>First Year Closed:</u></b> 2025-26<br/><b><u>Reuse Status:</u></b> Unavailable]]></description>
<Point>
<coordinates>-98.407527,29.530075</coordinates>
</Point>
</Placemark>
<Placemark>
<n>Driscoll Middle School</n>
<styleUrl>#Closed</styleUrl>
<description><![CDATA[<b><u>Address:</u></b> 17150 Jones Maltsberger Rd, San Antonio, TX 78247<br/><b><u>First Year Closed:</u></b> 2025-26<br/><b><u>Reuse Status:</u></b> Unavailable]]></description>
<Point>
<coordinates>-98.431017,29.595427</coordinates>
</Point>
</Placemark>
<Placemark>
<n>Bowie Elementary School</n>
<styleUrl>#Closed</styleUrl>
<description><![CDATA[<b><u>Address:</u></b> 439 Arbor Place, San Antonio, TX 78207<br/><b><u>First Year Closed:</u></b> 2023-24<br/><b><u>Reuse Status:</u></b> Unavailable]]></description>
<Point>
<coordinates>-98.509163,29.4365</coordinates>
</Point>
</Placemark>
<Placemark>
<n>Brewer Elementary School</n>
<styleUrl>#Closed</styleUrl>
<description><![CDATA[<b><u>Address:</u></b> 906 Merida St, San Antonio, TX 78207<br/><b><u>First Year Closed:</u></b> 2024-25<br/><b><u>Reuse Status:</u></b> Unavailable]]></description>
<Point>
<coordinates>-98.534706,29.408404</coordinates>
</Point>
</Placemark>
<Placemark>
<n>Burnet</n>
<styleUrl>#Closed</styleUrl>
<description><![CDATA[<b><u>Address:</u></b> 406 Barrera St, San Antonio, TX 78210<br/><b><u>First Year Closed:</u></b> 2024-25<br/><b><u>Reuse Status:</u></b> Unavailable]]></description>
<Point>
<coordinates>-98.485659,29.413711</coordinates>
</Point>
</Placemark>
<Placemark>
<n>Pickett</n>
<styleUrl>#Closed</styleUrl>
<description><![CDATA[<b><u>Address:</u></b> 1931 E Houston St San Antonio, TX 78202<br/><b><u>First Year Closed:</u></b> N/A<br/><b><u>Reuse Status:</u></b> Unavailable]]></description>
<Point>
<coordinates>-98.466836,29.425386</coordinates>
</Point>
</Placemark>


    
  </Document>
</kml>
